STARLINK-3585           
1 51875U 22022Z   26068.25743656 -.00002794  00000+0 -15750-3 0  9998
2 51875  53.2194  10.9734 0001240  96.9709 263.1425 15.08841392223059
PRSC-S1                 
1 65055U 25164A   26068.60758212  .00007316  00000+0  46631-3 0  9991
2 65055  41.1290 129.3637 0004466 348.3012  11.7698 15.08919510 33403
